X,Y,Z,Type,Name,street,HouseNumbe,neighborho,Operator,Seats,Activity,fencing,lighting,handicappe,handicap_1,yearOfEsta,condition,Owner,ForSchool,associatio,SportType,Id
34.763918827000104,31.257552794000002,0,מגרש כדורסל – 19X32 מ',אור,מאיר יערי,50.0,יא,ניהול עצמי,0.0,פתוח ללא הגבלה,קיים גידור,קיימת תאורה,נגיש לנכים,חניה קיימת,,תקין ופעיל,עיריית באר שבע,אור,,,3150
34.775130063000105,31.255161367,0,מגרש ספורט משולב – 43X32 מ',אוריין,טבנקין,0.0,ה',ניהול עצמי,0.0,פתוח ללא הגבלה,קיים גידור,קיימת תאורה,נגיש לנכים,חניה קיימת,,תקין ופעיל,עיריית באר שבע,אוריין,,,3151
34.775263523,31.254856031,0,אולם ספורט קטן – 15x24 מ',אוריין,טבנקין,0.0,ה',ניהול עצמי,0.0,בתיאום בלבד,קיים גידור,קיימת תאורה,נגיש לנכים,חניה קיימת,,תקין ופעיל,עיריית באר שבע,אוריין,כיוונים,חוגי ספורט,3152
34.7766780260001,31.243229722,0,אולם ספורט קטן – 20x10 מ',אשכול,מגידו,12.0,ט',ניהול עצמי,0.0,בתיאום בלבד,קיים גידור,קיימת תאורה,נגיש לנכים,חניה קיימת,,תקין ופעיל,עיריית באר שבע,אשכול,,ג'ודו,3153
34.7763054160001,31.243096622000103,0,מגרש כדורסל – 19X32 מ',אשכול,מגידו,12.0,ט',ניהול עצמי,0.0,פתוח ללא הגבלה,קיים גידור,אין תאורה,נגיש לנכים,חניה קיימת,,תקין ופעיל,עיריית באר שבע,אשכול,,,3154
34.787806694000004,31.2440310200001,0,מגרש ספורט משולב – 43X32 מ',בארי,אסף שמחוני,483.0,עיר עתיקה,ניהול עצמי,0.0,פתוח ללא הגבלה,קיים גידור,קיימת תאורה,נגיש לנכים,חניה קיימת,,תקין ופעיל,עיריית באר שבע,בארי,,,3155
34.7768850190001,31.23748993,0,מגרש ספורט משולב – 43X32 מ',יחדיו,חטיבה 8,12.0,נווה זאב,ניהול עצמי,0.0,פתוח ללא הגבלה,קיים גידור,קיימת תאורה,נגיש לנכים,חניה קיימת,,תקין ופעיל,עיריית באר שבע,,,,3156
34.784991588000004,31.2373610650001,0,מגרש מיני פיץ',מרגליות,ההגנה,10.0,עיר עתיקה,כיוונים,0.0,בתיאום בלבד,קיים גידור,קיימת תאורה,נגיש לנכים,חניה קיימת,,תקין ופעיל,עיריית באר שבע,,לא,כדורגל,3157
34.7643277190001,31.24716534,0,מגרש כדורגל – 45X90 מ',מגרש כדורגל נאות לון,שמחה הולברג,6.0,נאות לון,כיוונים,0.0,בתיאום בלבד,קיים גידור,קיימת תאורה,נגיש לנכים,חניה קיימת,,תקין ופעיל,עיריית באר שבע,,כיוונים פוטבול וקהילה,כדורגל,3158
34.7631755850001,31.245452766,0,5 מגרשי טניס שדה,נאות לון,שמחה הולברג,6.0,נאות לון,כיוונים,0.0,בתיאום בלבד,קיים גידור,קיימת תאורה,נגיש לנכים,חניה קיימת,,תקין ופעיל,עיריית באר שבע,,חוגי טניס כיוונים וקהילה,טניס שדה,3159
34.7629402860001,31.2467061610001,0,מגרש כדורסל – 19X32 מ',נאות לון,שמחה הולברג,6.0,נאות לון,ניהול עצמי,0.0,פתוח ללא הגבלה,קיים גידור,קיימת תאורה,נגיש לנכים,חניה קיימת,,תקין ופעיל,,נאות לון,,,3160
34.7697978840001,31.251902102,0,מתקן פתוח לכושר גופני,פארק כושר נאות לון,יגאל ידין,6.0,נאות לון,כיוונים,0.0,פתוח ללא הגבלה,קיים גידור,אין תאורה,נגיש לנכים,חניה קיימת,,תקין ופעיל,עיריית באר שבע,,,כושר,3161
34.8001690340001,31.228162130999998,0,אצטדיון כדורגל – 105X70 מ',נווה נוי,נווה נוי,0.0,נווה נוי,כיוונים,0.0,בתיאום בלבד,קיים גידור,קיימת תאורה,נגיש לנכים,חניה קיימת,,תקין ופעיל,עיריית באר שבע,,מכבי,כדורגל,3162
34.7838169560001,31.259834062,0,מגרש כדורסל – 19X32 מ',תומר,מבצע נחשון,0.0,ו' החדשה,ניהול עצמי,0.0,פתוח ללא הגבלה,קיים גידור,קיימת תאורה,נגיש לנכים,חניה קיימת,,תקין ופעיל,עיריית באר שבע,תומר,,,3163
34.7748347400001,31.259853514,0,מגרש כדורסל – 19X32 מ',"שז""ר",מבצע עובדה,43.0,ו' החדשה,כיוונים,0.0,פתוח ללא הגבלה,קיים גידור,קיימת תאורה,נגיש לנכים,חניה קיימת,,תקין ופעיל,עיריית באר שבע,"שז""ר",,,3164
34.7752224270001,31.259817122000104,0,אולם ספורט קטן – 15x24 מ',"שז""ר",מבצע עובדה,43.0,ו' החדשה,כיוונים,0.0,בתיאום בלבד,קיים גידור,אין תאורה,נגיש לנכים,חניה קיימת,,תקין ופעיל,עיריית באר שבע,"שז""ר",הפועל,"טנ""ש",3165
34.7871317070001,31.2480305330001,0,אולם ספורט גדול - 45X24 מ',רעות,בזל,0.0,א,ניהול עצמי,0.0,בתיאום בלבד,קיים גידור,קיימת תאורה,נגיש לנכים,חניה קיימת,,תקין ופעיל,עיריית באר שבע,רעות,"בית""ר",כדורסל,3166
34.786552913,31.2477665590001,0,מגרש ספורט משולב – 43X32 מ',רעות,בזל,0.0,א,ניהול עצמי,0.0,פתוח ללא הגבלה,קיים גידור,קיימת תאורה,נגיש לנכים,חניה קיימת,,תקין ופעיל,עיריית באר שבע,רעות,,,3167
34.7962696430001,31.257400597000103,0,מגרש כדורסל – 19X32 מ',רננות,אבן גבירול,10.0,ב',ניהול עצמי,0.0,פתוח ללא הגבלה,קיים גידור,אין תאורה,נגיש לנכים,חניה קיימת,,תקין ופעיל,עיריית באר שבע,רננות,,,3168
34.8046295930001,31.2737522850001,0,מגרש כדורסל – 19X32 מ',רמות,הדעת פינת המדע,0.0,רמות,ניהול עצמי,0.0,פתוח ללא הגבלה,קיים גידור,אין תאורה,נגיש לנכים,חניה קיימת,,תקין ופעיל,עיריית באר שבע,רמות,,,3169
34.7793079900001,31.2529595400001,0,מגרש ספורט משולב – 43X32 מ',"רמב""ם",קדושי בגדד,1.0,ג',ניהול עצמי,0.0,פתוח ללא הגבלה,קיים גידור,קיימת תאורה,נגיש לנכים,חניה קיימת,,תקין ופעיל,עיריית באר שבע,"רמב""ם",,,3170
34.762406061,31.256915304000103,0,מגרש כדורסל – 19X32 מ',רימונים,ישעיהו,1.0,"יי""א",ניהול עצמי,0.0,פתוח ללא הגבלה,קיים גידור,אין תאורה,נגיש לנכים,חניה קיימת,,תקין ופעיל,עיריית באר שבע,רימון,,,3171
34.777795133000005,31.273396747,0,אצטדיון כדורגל עירוני – 105X68 מ',טרנר,הצדיק מירושלים,1.0,נחל עשן,כיוונים,0.0,בתיאום בלבד,קיים גידור,קיימת תאורה,נגיש לנכים,חניה קיימת,2014.0,תקין ופעיל,עיריית באר שבע,,"הפועל ב""ש",כדורגל,3172
34.7590073750001,31.254287749000103,0,מגרש טניס,קאנטרי קלאב,,0.0,,קאנטרי קלאב,0.0,בתיאום בלבד,קיים גידור,קיימת תאורה,נגיש לנכים,חניה קיימת,,תקין ופעיל,עיריית באר שבע,,,,3173
34.7586057660001,31.2531898080001,0,בריכת שחיה - 20X50 מ',קאנטרי קלאב,,0.0,,קאנטרי קלאב,0.0,בתיאום בלבד,קיים גידור,קיימת תאורה,נגיש לנכים,חניה קיימת,,תקין ופעיל,עיריית באר שבע,,,,3174
34.758828376000096,31.25282908,0,בריכת שחיה - 25X12.5 מ',קאנטרי קלאב,,0.0,,קאנטרי קלאב,0.0,בתיאום בלבד,קיים גידור,קיימת תאורה,נגיש לנכים,חניה קיימת,,תקין ופעיל,עיריית באר שבע,,,,3175
34.7584745440001,31.254249751,0,מגרש ספורט משולב – 43X32 מ',קאנטרי קלאב,,0.0,,קאנטרי קלאב,0.0,בתיאום בלבד,קיים גידור,קיימת תאורה,נגיש לנכים,חניה קיימת,,תקין ופעיל,עיריית באר שבע,,,,3176
34.7588771530001,31.2536426240001,0,אחר: מתקן ספורט כללי,קאנטרי קלאב,,0.0,,קאנטרי קלאב,0.0,בתיאום בלבד,קיים גידור,קיימת תאורה,נגיש לנכים,חניה קיימת,,תקין ופעיל,עיריית באר שבע,,,,3177
34.782631399,31.268588175999998,0,מגרש כדורסל – 19X32 מ',"בה""ס מקיף אמית",מרדכי מקלף יעקב דורי,0.0,ו' החדשה,ניהול עצמי,0.0,פתוח ללא הגבלה,קיים גידור,אין תאורה,נגיש לנכים,חניה קיימת,,תקין ופעיל,עיריית באר שבע,עמית,,,3178
34.7829138560001,31.2682580540001,0,אולם ספורט קטן – 15x24 מ',"בה""ס מקיף אמי""ת",מרדכי מקלף יעקב דורי,0.0,ו' החדשה,ניהול עצמי,0.0,בתיאום בלבד,קיים גידור,קיימת תאורה,נגיש לנכים,חניה קיימת,,תקין ופעיל,עיריית באר שבע,עמית,,,3179
34.772631473000004,31.247479613000102,0,מגרש ספורט משולב – 43X32 מ',נתיבי עם,שד' ירושלים,0.0,ט',ניהול עצמי,0.0,פתוח ללא הגבלה,קיים גידור,קיימת תאורה,נגיש לנכים,חניה קיימת,,תקין ופעיל,עיריית באר שבע,נתיבי עם,,,3180
34.788533027,31.255419298000003,0,מגרש כדורסל – 19X32 מ',נתיבות יורם,בצלאל,35.0,ב',ניהול עצמי,0.0,פתוח ללא הגבלה,קיים גידור,קיימת תאורה,אין נגישות לנכים,חניה קיימת,,תקין ופעיל,עיריית באר שבע,נתיבות יורם,,,3181
34.7964984480001,31.2643023030001,0,מגרש ספורט משולב – 43X32 מ',נעורים,אלכסנדר ינאי,12.0,ד',כיוונים,0.0,פתוח ללא הגבלה,קיים גידור,קיימת תאורה,נגיש לנכים,חניה קיימת,,תקין ופעיל,עיריית באר שבע,,כיוונים,כדורגל,3182
34.7904767800001,31.269218952000102,0,מגרש כדורגל גדול– 45X90 מ',נירים,"רש""י",3.0,ד',כיוונים,150.0,בתיאום בלבד עם מאיר בוסקילה מנהל נירים,קיים גידור,קיימת תאורה,נגיש לנכים,חניה קיימת,,תקין ופעיל,עיריית באר שבע,,כיוונים,כדורגל,3183
34.777571515,31.225239576,0,מגרש ספורט משולב – 43X32 מ',נחל בקע,,0.0,,כיוונים,0.0,פתוח ללא הגבלה,קיים גידור,קיימת תאורה,נגיש לנכים,חניה קיימת,,תקין ופעיל,עיריית באר שבע,,,,3184
34.806820364000004,31.2622378410001,0,אולם ספורט גדול - 45X24 מ',מרכז הספורט באוניברסיטת בן גוריון,,0.0,,אוניברסיטת בן גוריון,0.0,בתיאום בלבד,קיים גידור,קיימת תאורה,נגיש לנכים,חניה קיימת,,תקין ופעיל,עיריית באר שבע,,,,3185
34.807688447,31.261238554000002,0,מגרש טניס,מרכז הספורט באוניברסיטת בן גוריון,,0.0,,אוניברסיטת בן גוריון,0.0,בתיאום בלבד,קיים גידור,קיימת תאורה,נגיש לנכים,חניה קיימת,,תקין ופעיל,עיריית באר שבע,,,,3186
34.807649082000104,31.2617019100001,0,בריכת שחיה - 20X50 מ',מרכז הספורט באוניברסיטת בן גוריון,,0.0,,אוניברסיטת בן גוריון,0.0,בתיאום בלבד,קיים גידור,קיימת תאורה,נגיש לנכים,חניה קיימת,,תקין ופעיל,עיריית באר שבע,,,,3187
34.765448459,31.268586587000105,0,מגרש כדורסל – 19X32 מ',"בה""ס נווה מנחם",רבקה,6.0,נחל עשן,ניהול עצמי,0.0,פתוח ללא הגבלה,קיים גידור,אין תאורה,נגיש לנכים,חניה קיימת,,תקין ופעיל,עיריית באר שבע,נווה מנחם,,,3188
34.806922813,31.261764303000103,0,בריכת שחיה - 25X12.5 מ',מרכז הספורט באוניברסיטת בן גוריון,,0.0,,אוניברסיטת בן גוריון,0.0,בתיאום בלבד,קיים גידור,קיימת תאורה,נגיש לנכים,חניה קיימת,,תקין ופעיל,עיריית באר שבע,,,,3189
34.7918641,31.27281659,0,אולם ספורט קטן – 20x10 מ',מרכז האבקות- בן צבי,התלמוד,0.0,ד',כיוונים,0.0,בתיאום בלבד,קיים גידור,קיימת תאורה,נגיש לנכים,חניה קיימת,,תקין ופעיל,עיריית באר שבע,,עמי,האבקות,3190
34.7683064490001,31.235070566999998,0,מגרש ספורט משולב – 43X32 מ',מקיף רגר,נפתלי הרץ אימבר,0.0,נווה זאב,כיוונים,0.0,פתוח ללא הגבלה,קיים גידור,קיימת תאורה,נגיש לנכים,חניה קיימת,,תקין ופעיל,עיריית באר שבע,רגר,,,3191
34.768728165,31.235374968000002,0,אולם ספורט גדול - 45X24 מ',מקיף רגר,נפתלי הרץ אימבר,0.0,נווה זאב,כיוונים,0.0,בתיאום בלבד,קיים גידור,קיימת תאורה,נגיש לנכים,חניה קיימת,,תקין ופעיל,עיריית באר שבע,רגר,"כיוונים, מכבי",חוגים + כדורסל בנות,3192
34.766066283,31.259928626,0,מגרש ספורט משולב – 43X32 מ',מקיף רבין,מרדכי נמיר,0.0,"יי""א",ניהול עצמי,0.0,פתוח ללא הגבלה,קיים גידור,קיימת תאורה,נגיש לנכים,חניה קיימת,,תקין ופעיל,עיריית באר שבע,רבין,,,3193
34.766559218000104,31.2599538360001,0,אולם ספורט גדול - 45X24 מ',מקיף רבין,מרדכי נמיר,0.0,"יי""א",ניהול עצמי,0.0,בתיאום בלבד,קיים גידור,קיימת תאורה,נגיש לנכים,חניה קיימת,,תקין ופעיל,עיריית באר שבע,רבין,,,3194
34.791441241,31.270131456999998,0,מגרש כדורסל – 19X32 מ',אלומות,רחבת יהודה הנשיא,0.0,ד',ניהול עצמי,0.0,פתוח ללא הגבלה,קיים גידור,אין תאורה,אין נגישות לנכים,חניה קיימת,,תקין ופעיל,עיריית באר שבע,אלומות,,,3195
34.7705407730001,31.2556603210001,0,אולם ספורט קטן – 15x24 מ',אלון,,0.0,,ניהול עצמי,0.0,בתיאום בלבד,קיים גידור,קיימת תאורה,נגיש לנכים,חניה קיימת,,תקין ופעיל,עיריית באר שבע,אלון,,ריקוד/מחול,3196
34.786915197,31.2656078050001,0,אולם ספורט גדול - 45X24 מ',"אמי""ת- מקיף ד' לשעבר",יהודה הלוי,0.0,שכ' ד',כיוונים,500.0,בתיאום בלבד,קיים גידור,קיימת תאורה,נגיש לנכים,חניה קיימת,,תקין ופעיל,עיריית באר שבע,"אמי""ת","בית""ר, הפועל",כדורסל,3197
34.78744392,31.2651454050001,0,מגרש ספורט משולב – 43X32 מ',"אמי""ת- מקיף ד' לשעבר",יהודה הלוי,0.0,שכ' ד',כיוונים,0.0,פתוח ללא הגבלה,קיים גידור,קיימת תאורה,נגיש לנכים,חניה קיימת,,תקין ופעיל,עיריית באר שבע,"אמי""ת",,,3198
34.799201552000106,31.268498253000104,0,מגרש כדורסל – 19X32 מ',"אמירים תל""י",קלאוזנר,0.0,ו' הישנה,ניהול עצמי,0.0,פתוח ללא הגבלה,קיים גידור,אין תאורה,נגיש לנכים,חניה קיימת,,תקין ופעיל,עיריית באר שבע,"אמירים-תל""י",,,3199
34.7676468490001,31.2614260890001,0,מגרש כדורסל – 19X32 מ',אפיק,הרב הרצוג,0.0,"יי""א",ניהול עצמי,0.0,פתוח ללא הגבלה,קיים גידור,אין תאורה,נגיש לנכים,חניה קיימת,,תקין ופעיל,עיריית באר שבע,אפיק,,,3200
34.8033455080001,31.270512228,0,מגרש כדורסל – 19X32 מ',אפיקים בנגב,הדעת,89.0,רמות,ניהול עצמי,0.0,פתוח ללא הגבלה,קיים גידור,אין תאורה,נגיש לנכים,חניה קיימת,,תקין ופעיל,עיריית באר שבע,אפיקים בנגב,,,3201
34.802204825,31.2710036300001,0,מגרש ספורט משולב – 43X32 מ',מקיף ז',,0.0,,רשת עמל,0.0,פתוח ללא הגבלה,קיים גידור,קיימת תאורה,נגיש לנכים,חניה קיימת,,תקין ופעיל,עיריית באר שבע,מקיף ז',,,3202
34.802601732,31.27062707,0,אולם ספורט גדול - 45X24 מ',מקיף ז',,0.0,,רשת עמל,0.0,בתיאום בלבד,קיים גידור,קיימת תאורה,נגיש לנכים,חניה קיימת,,תקין ופעיל,עיריית באר שבע,מקיף ז',,,3203
34.7719985530001,31.248610997000103,0,מגרש כדורגל – 45X90 מ',מקיף ו',בית אל,0.0,ט',כיוונים,0.0,בתיאום בלבד,קיים גידור,קיימת תאורה,נגיש לנכים,חניה קיימת,,תקין ופעיל,עיריית באר שבע,מקיף ו',"הפועל, מכבי בני הנגב","כדורגל נשים, אתלטיקה",3204
34.7752286840001,31.2472914470001,0,מגרש ספורט משולב – 43X32 מ',מולדת,שד' ירושלים,0.0,שכ' ט',ניהול עצמי,0.0,פתוח ללא הגבלה,קיים גידור,קיימת תאורה,נגיש לנכים,חניה קיימת,,תקין ופעיל,עיריית באר שבע,,,,3205
34.7794654410001,31.271017288000102,0,"אצטדיון/מסלול אתלטיקה קלה – 6-4 מסלולים, 250 או 300 מ'",מכללת קיי,יהודה הלוי,0.0,ו' החדשה,מכללת קיי,0.0,בתיאום בלבד,קיים גידור,קיימת תאורה,נגיש לנכים,חניה קיימת,,תקין ופעיל,עיריית באר שבע,,,,3206
34.779366264000004,31.270354938,0,מגרש טניס,מכללת קיי,יהודה הלוי,0.0,ו' החדשה,מכללת קיי,0.0,בתיאום בלבד,קיים גידור,קיימת תאורה,נגיש לנכים,חניה קיימת,,תקין ופעיל,עיריית באר שבע,,,,3207
34.790704801000096,31.230468483000003,0,מגרש כדורסל – 19X32 מ',מענית,כיכר הגנים,0.0,נווה נוי,ניהול עצמי,0.0,פתוח ללא הגבלה,קיים גידור,אין תאורה,נגיש לנכים,חניה קיימת,,תקין ופעיל,עיריית באר שבע,מענית,,,3208
34.801092856,31.252697283000003,0,"אצטדיון/מסלול אתלטיקה קלה – 6-4 מסלולים, 250 או 300 מ'",מקיף א',דרך השלום,15.0,ג',כיוונים,0.0,פתוח ללא הגבלה,קיים גידור,קיימת תאורה,נגיש לנכים,חניה קיימת,,תקין ופעיל,עיריית באר שבע,מקיף א',,,3209
34.7827318510001,31.256288752,0,"אצטדיון/מסלול אתלטיקה קלה – 6-4 מסלולים, 250 או 300 מ'",מקיף ג',דרך שמשון,1.0,ב',כיוונים,0.0,פתוח ללא הגבלה,קיים גידור,קיימת תאורה,נגיש לנכים,חניה קיימת,,תקין ופעיל,עיריית באר שבע,מקיף ג',,,3210
34.7830568460001,31.256393218000003,0,אולם ספורט בינוני – 32x19 מ',מקיף ג',דרך שמשון,1.0,ב',כיוונים,0.0,בתיאום בלבד,קיים גידור,קיימת תאורה,נגיש לנכים,חניה קיימת,,תקין ופעיל,עיריית באר שבע,מקיף ג',הפועל,כדורסל,3211
34.7623993190001,31.262886613000003,0,מגרש ספורט משולב – 43X32 מ',מקיף טוביהו,דוד הראובני,27.0,נחל עשן,כיוונים,0.0,פתוח ללא הגבלה,קיים גידור,קיימת תאורה,נגיש לנכים,חניה קיימת,,תקין ופעיל,עיריית באר שבע,טוביהו,,,3212
34.7624228390001,31.263333122000102,0,אולם ספורט גדול - 45X24 מ',מקיף טוביהו,דוד הראובני,27.0,נחל עשן,כיוונים,0.0,בתיאום בלבד,קיים גידור,קיימת תאורה,נגיש לנכים,חניה קיימת,,תקין ופעיל,עיריית באר שבע,טוביהו,"הפועל, מכבי דרום, כיוונים","טנ""ש, התעמלות אומנותית וכדורסל",3213
34.7928530230001,31.252142728000003,0,מגרש ספורט משולב – 43X32 מ',מקיף ח',המשחררים,0.0,א,כיוונים,0.0,פתוח ללא הגבלה,קיים גידור,קיימת תאורה,נגיש לנכים,חניה קיימת,,תקין ופעיל,עיריית באר שבע,מקיף ח',,,3214
34.787083933000105,31.254879191,0,מגרש כדורגל – 45X90 מ',מגרש אימונים וסרמיל,יהודה הלוי,0.0,ב',כיוונים,0.0,בתיאום בלבד,קיים גידור,קיימת תאורה,נגיש לנכים,חניה קיימת,,תקין ופעיל,עיריית באר שבע,,,,3215
34.796685306,31.268204158000103,0,מגרש מיני פיץ',ד' מרכז- מגרש ארסנל,,0.0,ד',כיוונים,0.0,בתיאום בלבד,קיים גידור,קיימת תאורה,נגיש לנכים,חניה קיימת,,תקין ופעיל,עיריית באר שבע,,לא,כדורגל,3216
34.7862857260001,31.2667880610001,0,אולם ספורט גדול - 45X24 מ',דניס השרדות,יהודה הלוי,0.0,ד',כיוונים,0.0,בתיאום בלבד,קיים גידור,קיימת תאורה,נגיש לנכים,חניה קיימת,,תקין ופעיל,עיריית באר שבע,,,,3217
34.786134749,31.25374371,0,אצטדיון כדורגל – 105X70 מ',וסרמיל,יהודה הלוי,0.0,ב',כיוונים,16000.0,בתיאום בלבד,קיים גידור,קיימת תאורה,נגיש לנכים,חניה קיימת,,תקין ופעיל,עיריית באר שבע,,"הפועל ומכבי ב""ש",כדורגל,3218
34.813499412000105,31.253835614,0,מגרש כדורגל – 45X90 מ',טאובל,בן גוריון,0.0,ג',כיוונים,0.0,בתיאום בלבד,קיים גידור,קיימת תאורה,נגיש לנכים,חניה קיימת,,תקין ופעיל,עיריית באר שבע,,,,3219
34.812797157,31.2555895850001,0,מגרש טניס,טאובל,בן גוריון,0.0,ג',כיוונים,0.0,פתוח ללא הגבלה,קיים גידור,קיימת תאורה,נגיש לנכים,חניה קיימת,,תקין ופעיל,עיריית באר שבע,,,,3220
34.780322917,31.2444330060001,0,בריכת שחיה - 20X50 מ',בית החייל,בית לחם,2.0,ט',בית החייל,0.0,בתיאום בלבד,קיים גידור,קיימת תאורה,נגיש לנכים,חניה קיימת,,תקין ופעיל,עיריית באר שבע,,,,3221
34.7807473080001,31.244430485000102,0,מגרש כדורסל – 19X32 מ',בית החייל,בית לחם,2.0,ט',בית החייל,0.0,בתיאום בלבד,קיים גידור,קיימת תאורה,נגיש לנכים,חניה קיימת,,תקין ופעיל,עיריית באר שבע,,,,3222
34.7804257500001,31.2449077380001,0,אחר: מתקן ספורט כללי,בית החייל,בית לחם,2.0,ט',בית החייל,0.0,בתיאום בלבד,קיים גידור,קיימת תאורה,נגיש לנכים,חניה קיימת,,תקין ופעיל,עיריית באר שבע,,,,3223
34.784800291000096,31.242645757,0,בריכת שחיה - 25X12.5 מ',בית יציב,העצמאות,79.0,ט',בית יציב,0.0,בתיאום בלבד,קיים גידור,קיימת תאורה,נגיש לנכים,חניה קיימת,,תקין ופעיל,עיריית באר שבע,,,,3224
34.793128854,31.2463267840001,0,מגרש כדורסל – 19X32 מ',בר אילן- מוריה,מנדלי מוכר ספרים,0.0,א',ניהול עצמי,0.0,פתוח ללא הגבלה,קיים גידור,אין תאורה,נגיש לנכים,חניה קיימת,,תקין ופעיל,עיריית באר שבע,,,,3225
34.7588432090001,31.264557621000097,0,מגרש כדורסל – 19X32 מ',היובל,המלכים,10.0,נחל עשן,ניהול עצמי,0.0,פתוח ללא הגבלה,קיים גידור,אין תאורה,נגיש לנכים,חניה קיימת,,תקין ופעיל,עיריית באר שבע,,,,3226
34.7778627480001,31.241399763000103,0,מתקן פתוח לכושר גופני,נווה זאב,,0.0,נווה זאב,כיוונים,0.0,פתוח ללא הגבלה,קיים גידור,קיימת תאורה,נגיש לנכים,חניה קיימת,,תקין ופעיל,עיריית באר שבע,,,כושר,3227
34.787205353000004,31.2572978100001,0,מגרש טניס,מרכז הטניס הישראלי,,0.0,,מרכז הטניס,0.0,בתיאום בלבד,קיים גידור,קיימת תאורה,נגיש לנכים,חניה קיימת,,תקין ופעיל,עיריית באר שבע,,,,3228
34.7894394250001,31.247625721000098,0,מגרש טניס,מרכז הטניס שכונה א',,0.0,,מרכז הטניס,0.0,בתיאום בלבד,קיים גידור,קיימת תאורה,נגיש לנכים,חניה קיימת,,תקין ופעיל,עיריית באר שבע,,,,3229
34.8043455150001,31.2548115290001,0,מגרש כדורסל – 19X32 מ',נטעים,גולומב,0.0,ג',ניהול עצמי,0.0,פתוח ללא הגבלה,קיים גידור,קיימת תאורה,נגיש לנכים,חניה קיימת,,תקין ופעיל,עיריית באר שבע,נטעים,,,3230
34.8041341050001,31.254599988000102,0,אולם ספורט קטן – 20x10 מ',נטעים,גולומב,0.0,ג',ניהול עצמי,0.0,בתיאום בלבד,קיים גידור,קיימת תאורה,נגיש לנכים,חניה קיימת,,תקין ופעיל,עיריית באר שבע,נטעים,,,3231
34.774265493,31.2707561290001,0,"4 מגרש כדורגל – 45X90 מ' דשא טיבעי
1 מגרש כדורגל 45X90 מ' דשא סינטטי",5 מגרשי כדורגל פיקה,הצדיק מירושלים,1.0,נחל עשן,כיוונים,1000.0,בתיאום בלבד,קיים גידור,קיימת תאורה,נגיש לנכים,חניה קיימת,,תקין ופעיל,עיריית באר שבע,,"אגודות  הפועל, בית""ר ומכבי",כדורגל,3232
34.7709589610001,31.2446956960001,0,מגרש כדורסל – 19X32 מ',יובלים,שבטה,0.0,ט',ניהול עצמי,0.0,פתוח ללא הגבלה,קיים גידור,אין תאורה,נגיש לנכים,חניה קיימת,,תקין ופעיל,עיריית באר שבע,,,,3233
34.775971251,31.25222095,0,מגרש כדורסל – 19X32 מ',אילנות,בורלא יהודה,19.0,ה',ניהול עצמי,0.0,פתוח ללא הגבלה,קיים גידור,קיימת תאורה,נגיש לנכים,חניה קיימת,,תקין ופעיל,עיריית באר שבע,אילנות,,,3234
34.776263644000004,31.252006767000104,0,אולם ספורט בינוני – 32x19 מ',אילנות,בורלא יהודה,19.0,ה',ניהול עצמי,100.0,בתיאום בלבד,קיים גידור,קיימת תאורה,נגיש לנכים,חניה קיימת,,תקין ופעיל,עיריית באר שבע,אילנות,,,3235
34.8087108140001,31.24996753,0,מגרש כדורסל – 19X32 מ',דגניה,ז'בוטינסקי,17.0,ג',ניהול עצמי,0.0,פתוח ללא הגבלה,קיים גידור,אין תאורה,נגיש לנכים,חניה קיימת,,תקין ופעיל,עיריית באר שבע,,,,3236
34.80827192,31.261662845,0,מגרש חול קבוע לכדורעף או לקטרגל או לכדוריד חופים,מרכז הספורט באוניברסיטת בן גוריון,,0.0,,אוניברסיטת בן גוריון,0.0,בתיאום בלבד,קיים גידור,קיימת תאורה,נגיש לנכים,חניה קיימת,,תקין ופעיל,עיריית באר שבע,,,,3237
34.8074026410001,31.262046636999997,0,מגרש ספורט משולב – 43X32 מ',מרכז הספורט באוניברסיטת בן גוריון,,0.0,,אוניברסיטת בן גוריון,0.0,בתיאום בלבד,קיים גידור,קיימת תאורה,נגיש לנכים,חניה קיימת,,תקין ופעיל,עיריית באר שבע,,,,3238
34.808069371,31.262069399,0,אחר: מתקן ספורט כללי,מרכז הספורט באוניברסיטת בן גוריון,,0.0,,אוניברסיטת בן גוריון,0.0,בתיאום בלבד,קיים גידור,קיימת תאורה,נגיש לנכים,חניה קיימת,,תקין ופעיל,עיריית באר שבע,,,,3239
34.781854353,31.255918732000104,0,אחר: מתקן ספורט כללי,מרכז האבקות ליד מקיף ג',ליד מקיף ג',0.0,ב',כיוונים,0.0,בתיאום בלבד,קיים גידור,קיימת תאורה,אין נגישות לנכים,חניה קיימת,,תקין ופעיל,עיריית באר שבע,,הפועל,האבקות,3240
34.8010908420001,31.2546980340001,0,מגרש כדורסל – 19X32 מ',"אולפנת אמי""ת",וינגייט,0.0,ג',כיוונים,0.0,פתוח ללא הגבלה,קיים גידור,קיימת תאורה,נגיש לנכים,חניה קיימת,,תקין ופעיל,עיריית באר שבע,"אמי""ת",,,3241
34.800717803000104,31.2547297200001,0,אולם ספורט בינוני – 32x19 מ',"אולפנת אמי""ת",וינגייט,0.0,ג',כיוונים,100.0,בתיאום בלבד,קיים גידור,קיימת תאורה,נגיש לנכים,חניה קיימת,,תקין ופעיל,עיריית באר שבע,"אמי""ת",מכבי דרום,התעמלות אומנותית,3242
34.799600818,31.268472263000003,0,מגרש ספורט משולב – 43X32 מ',"אמירים תל""י",קלאוזנר,0.0,ו' הישנה,ניהול עצמי,0.0,פתוח ללא הגבלה,קיים גידור,קיימת תאורה,נגיש לנכים,חניה קיימת,,תקין ופעיל,עיריית באר שבע,"אמירים-תל""י",,,3243
34.792487855,31.230942428000002,0,מגרש כדורסל – 19X32 מ',אשלים פנימייה,,0.0,,ניהול עצמי,0.0,,קיים גידור,קיימת תאורה,נגיש לנכים,חניה קיימת,,תקין ופעיל,עיריית באר שבע,,,,3244
34.7927853310001,31.2307583480001,0,אולם ספורט קטן – 15x24 מ',אשלים פנימייה,,0.0,,ניהול עצמי,0.0,,קיים גידור,קיימת תאורה,נגיש לנכים,חניה קיימת,,תקין ופעיל,עיריית באר שבע,,,,3245
34.7881905400001,31.263957977000103,0,אולם ספורט קטן – 20x10 מ',בית העיוור,שאול המלך,1.0,ו' החדשה,בית העיור,0.0,בתיאום בלבד,קיים גידור,קיימת תאורה,נגיש לנכים,חניה קיימת,,תקין ופעיל,עיריית באר שבע,,,,3246
34.8105820650001,31.2697615970001,0,מגרש ספורט משולב – 43X32 מ',בן גוריון,שד' אורי צבי גרינברג,0.0,רמות,ניהול עצמי,0.0,בתיאום בלבד,קיים גידור,קיימת תאורה,נגיש לנכים,חניה קיימת,,תקין ופעיל,עיריית באר שבע,,,,3247
34.810564765,31.2701275,0,אולם ספורט קטן – 15x24 מ',בן גוריון,שד' אורי צבי גרינברג,0.0,רמות,ניהול עצמי,0.0,בתיאום בלבד,קיים גידור,קיימת תאורה,נגיש לנכים,חניה קיימת,,תקין ופעיל,עיריית באר שבע,בן גוריון,כיוונים,חוגים,3248
34.7692214040001,31.256809344,0,מגרש ספורט משולב – 43X32 מ',גבים,חתם סופר,0.0,"יי""א",ניהול עצמי,0.0,פתוח ללא הגבלה,קיים גידור,קיימת תאורה,נגיש לנכים,חניה קיימת,,תקין ופעיל,עיריית באר שבע,,,,3249
34.7689504210001,31.256482205999998,0,אולם ספורט קטן – 20x10 מ',גבים,חתם סופר,0.0,"יי""א",ניהול עצמי,0.0,בתיאום בלבד,קיים גידור,קיימת תאורה,נגיש לנכים,חניה קיימת,,תקין ופעיל,עיריית באר שבע,,,,3250
34.8081219250001,31.2499604230001,0,אולם ספורט קטן – 20x10 מ',דגניה,ז'בוטינסקי,17.0,ג',ניהול עצמי,0.0,בתיאום בלבד,קיים גידור,קיימת תאורה,נגיש לנכים,חניה קיימת,,תקין ופעיל,עיריית באר שבע,,,,3251
34.7910298680001,31.262214323000002,0,מגרש כדורסל – 19X32 מ',"חב""ד עוזיאל",בן יאיר,19.0,ד',ניהול עצמי,0.0,פתוח ללא הגבלה,קיים גידור,אין תאורה,נגיש לנכים,חניה קיימת,,תקין ופעיל,עיריית באר שבע,,,,3252
34.7917696740001,31.2620668810001,0,אולם ספורט קטן – 20x10 מ',"חב""ד עוזיאל",בן יאיר,19.0,ד',ניהול עצמי,0.0,בתיאום בלבד,קיים גידור,קיימת תאורה,נגיש לנכים,חניה קיימת,,תקין ופעיל,עיריית באר שבע,,,,3253
34.8087092740001,31.253263739,0,מגרש ספורט משולב – 43X32 מ',חזון עובדיה,גוש עציון,13.0,ג',ניהול עצמי,0.0,פתוח ללא הגבלה,קיים גידור,אין תאורה,נגיש לנכים,חניה קיימת,,תקין ופעיל,עיריית באר שבע,,,,3254
34.807976985,31.253308584000003,0,אולם ספורט קטן – 15x24 מ',חזון עובדיה,גוש עציון,13.0,ג',ניהול עצמי,0.0,בתיאום בלבד,קיים גידור,קיימת תאורה,נגיש לנכים,חניה קיימת,,תקין ופעיל,עיריית באר שבע,,,,3255
34.8130268090001,31.2551153630001,0,מגרש ספורט משולב – 43X32 מ',טאובל,בן גוריון,0.0,ג',כיוונים,0.0,פתוח ללא הגבלה,קיים גידור,קיימת תאורה,נגיש לנכים,חניה קיימת,,תקין ופעיל,עיריית באר שבע,,,,3256
34.7738895430001,31.263426585,0,מגרש ספורט משולב – 43X32 מ',מאיר,מבצע עובדה,116.0,ו' החדשה,ניהול עצמי,0.0,פתוח ללא הגבלה,קיים גידור,קיימת תאורה,נגיש לנכים,חניה קיימת,,תקין ופעיל,עיריית באר שבע,,,,3257
34.773899403,31.263952728000003,0,אולם ספורט קטן – 20x10 מ',"בה""ס מאיר",מבצע עובדה,116.0,ו' החדשה,ניהול עצמי,0.0,בתיאום בלבד,קיים גידור,קיימת תאורה,נגיש לנכים,חניה קיימת,,תקין ופעיל,עיריית באר שבע,,,,3258
34.790072476999995,31.27298961,0,מגרש ספורט משולב – 43X32 מ',ישיבת בני עקיבא,התלמוד,2.0,ד',ישיבת בני עקיבא,0.0,בתיאום בלבד,קיים גידור,קיימת תאורה,נגיש לנכים,חניה קיימת,,תקין ופעיל,עיריית באר שבע,,,,3259
34.788321901000096,31.263558823,0,מגרש ספורט משולב – 43X32 מ',מצפה,יהודה הלוי,0.0,ד',ניהול עצמי,0.0,פתוח ללא הגבלה,קיים גידור,קיימת תאורה,נגיש לנכים,חניה קיימת,,תקין ופעיל,עיריית באר שבע,מצפה,,,3260
34.7799193880001,31.257860632000103,0,מגרש ספורט משולב – 43X32 מ',ישיבת אמית,,0.0,,ניהול עצמי,0.0,פתוח ללא הגבלה,קיים גידור,קיימת תאורה,אין נגישות לנכים,חניה קיימת,,תקין ופעיל,עיריית באר שבע,מקיף ה',,,3261
34.779875968000106,31.257464643000002,0,אולם ספורט גדול - 45X24 מ',מקיף ה',,0.0,,כיוונים,0.0,בתיאום בלבד,קיים גידור,קיימת תאורה,אין נגישות לנכים,חניה קיימת,,תקין ופעיל,עיריית באר שבע,מקיף ה',"אליצור, הפועל ובית""ר","כדורסל, סייף וטנ""ש",3262
34.773248757,31.2475924760001,0,אולם ספורט גדול - 45X24 מ',מקיף ו',בית אל,0.0,ט',כיוונים,0.0,בתיאום בלבד,קיים גידור,קיימת תאורה,נגיש לנכים,חניה קיימת,,תקין ופעיל,עיריית באר שבע,מקיף ו',"כיוונים, ליגה למקומות עבודה",כללי,3263
34.7660024750001,31.2603353040001,0,מגרש פטאנק או כדורת דשא,"מתנ""ס יא'",מרדכי נמיר,11.0,יא',כיוונים,0.0,פתוח ללא הגבלה,קיים גידור,אין תאורה,נגיש לנכים,חניה קיימת,,תקין ופעיל,עיריית באר שבע,,,,3264
34.765502155,31.260266066,0,מגרש מיני פיץ',"מתנ""ס יא'",מרדכי נמיר,11.0,יא',כיוונים,0.0,פתוח ללא הגבלה,קיים גידור,קיימת תאורה,נגיש לנכים,חניה קיימת,,תקין ופעיל,עיריית באר שבע,,,,3265
34.794553975999996,31.2705715600001,0,מגרש כדורסל – 19X32 מ',יוסף קארו,אברהם אבינו,15.0,ד',ניהול עצמי,0.0,פתוח ללא הגבלה,קיים גידור,אין תאורה,נגיש לנכים,חניה קיימת,,תקין ופעיל,עיריית באר שבע,,,,3266
34.780735862,31.271302715999997,0,מגרש ספורט משולב – 43X32 מ',מכללת קיי,יהודה הלוי,0.0,ו' החדשה,מכללת קיי,0.0,בתיאום בלבד,קיים גידור,קיימת תאורה,נגיש לנכים,חניה קיימת,,תקין ופעיל,עיריית באר שבע,,,,3267
34.780200635,31.270993676,0,אולם ספורט בינוני – 32x19 מ',מכללת קיי,יהודה הלוי,0.0,ו' החדשה,מכללת קיי,0.0,בתיאום בלבד,קיים גידור,קיימת תאורה,נגיש לנכים,חניה קיימת,,תקין ופעיל,עיריית באר שבע,,,,3268
34.8002149390001,31.252473181,0,אולם ספורט בינוני – 32x19 מ',מקיף א',דרך השלום,15.0,ג',כיוונים,0.0,בתיאום בלבד,קיים גידור,קיימת תאורה,נגיש לנכים,חניה קיימת,,תקין ופעיל,עיריית באר שבע,מקיף א',"ניקה,מכבי, כיוונים","ריקודים, כדורסל, נכים",3269
34.7724636660001,31.248214409000102,0,מגרש ספורט משולב – 43X32 מ',מקיף ו',בית אל,0.0,ט',כיוונים,0.0,פתוח ללא הגבלה,קיים גידור,קיימת תאורה,נגיש לנכים,חניה קיימת,,תקין ופעיל,עיריית באר שבע,מקיף ו',,,3270
34.7884995420001,31.2595936390001,0,מגרש פטאנק או כדורת דשא,פטאנק שלנו,יהודה הלוי,0.0,,כיוונים,0.0,בתיאום בלבד,קיים גידור,אין תאורה,נגיש לנכים,חניה קיימת,,תקין ופעיל,עיריית באר שבע,,,,3271
34.7882034420001,31.257684899999997,0,,יסודות,מנדלסון משה,40.0,ב',ניהול עצמי,0.0,פתוח ללא הגבלה,קיים גידור,אין תאורה,נגיש לנכים,חניה קיימת,,תקין ופעיל,עיריית באר שבע,,,,3272
34.8016822660001,31.252804155,0,מגרש ספורט משולב – 43X32 מ',מקיף א',דרך השלום,15.0,ג',כיוונים,0.0,פתוח ללא הגבלה,קיים גידור,קיימת תאורה,נגיש לנכים,חניה קיימת,,תקין ופעיל,עיריית באר שבע,מקיף א',,,3273
34.782196608,31.2562447280001,0,מגרש ספורט משולב – 43X32 מ',מקיף ג',דרך שמשון,1.0,ב',כיוונים,0.0,פתוח ללא הגבלה,קיים גידור,קיימת תאורה,נגיש לנכים,חניה קיימת,,תקין ופעיל,עיריית באר שבע,מקיף ג',,,3274
34.773251077000104,31.248361377,0,אולם ספורט בינוני – 32x19 מ',מקיף ו',בית אל,0.0,ט',כיוונים,0.0,בתיאום בלבד,קיים גידור,קיימת תאורה,נגיש לנכים,חניה קיימת,,תקין ופעיל,עיריית באר שבע,מקיף ו',,,3275
34.7551264890001,31.254690171,0,אולם ספורט בינוני – 32x19 מ',טכני,אילן רמון,0.0,,טכני,0.0,בתיאום בלבד,קיים גידור,קיימת תאורה,נגיש לנכים,חניה קיימת,,תקין ופעיל,עיריית באר שבע,,,,3276
34.7548631650001,31.253740152,0,מגרש ספורט משולב – 43X32 מ',טכני,אילן רמון,0.0,,טכני,0.0,בתיאום בלבד,קיים גידור,קיימת תאורה,נגיש לנכים,חניה קיימת,,תקין ופעיל,עיריית באר שבע,,,,3277
34.782566925,31.243907893000003,0,מגרש משולב כדורסל וקטרגל,"מתחם רמב""ם","כיכר רמב""ם",0.0,"רמב""ם",כיוונים,0.0,פתוח ללא הגבלה,קיים גידור,קיימת תאורה,נגיש לנכים,חניה קיימת,,תקין ופעיל,עיריית באר שבע,,לא,משולב כדורסל וקטרגל,3278
34.814094506000096,31.271109691,0,רמות שלמה בן יוסף,רמות שלמה בן יוסף,שלמה בן יוסף,0.0,,כיוונים,0.0,פתוח ללא הגבלה,קיים גידור,קיימת תאורה,נגיש לנכים,חניה קיימת,,תקין ופעיל,עיריית באר שבע,,,,3279
34.809935889,31.275402518000103,0,גן כרמל - רמות,גן כרמל - רמות,רמות,0.0,רמות,כיוונים,0.0,פתוח ללא הגבלה,קיים גידור,קיימת תאורה,נגיש לנכים,חניה קיימת,,תקין ופעיל,עיריית באר שבע,,,,3280
34.782306743,31.24738081,0,כדוסל,גן מרדכי,שכונה ג',0.0,ה' הישנה,כיוונים,0.0,פתוח ללא הגבלה,,כן,,חניה קיימת,,תקין ופעיל,עיריית באר שבע,,לא,קטרגל,3281
34.789852178000004,31.261553803,0,מגרש קט רגל רבי עקיבא (המכתש),מגרש רבי עקיבא,שכונה ד' - בר גיורא/רבי עקעבא,0.0,ד',כיוונים,0.0,פתוח ללא הגבלה,קיים גידור,אין תאורה,אין נגישות לנכים,חניה קיימת,,תקין ופעיל,כיוונים באר שבע,,לא,קטרגל,3282
34.784099231,31.251810263000003,0,קטרגל,מרבד הקסמים,שכונה ה',0.0,ה' הישנה,כיוונים,0.0,פתוח ללא הגבלה,קיים גידור,קיימת תאורה,נגיש לנכים,חניה קיימת,,תקין ופעיל,עיריית באר שבע,,לא,קטרגל,3283
34.804064806,31.248052778,0,קט רגל,גאולים,שכונה ה',0.0,,כיוונים,0.0,פתוח ללא הגבלה,קיים גידור,קיימת תאורה,נגיש לנכים,חניה קיימת,,תקין ופעיל,עיריית באר שבע,,לא,קט רגל,3284
34.7800776930001,31.240553734000102,0,נווה זאב,י.ל פרץ,נווה זאב י.ל.פרץ,0.0,נווה זאב,כיוונים,0.0,פתוח ללא הגבלה,קיים גידור,קיימת תאורה,נגיש לנכים,חניה קיימת,,תקין ופעיל,עיריית באר שבע,,לא,כדורסל,3285
34.7717173520001,31.240703927,0,כדורסל,רח'  רונאל,נווהזאב,0.0,נווה זאב,כיוונים,0.0,פתוח ללא הגבלה,קיים גידור,קיימת תאורה,נגיש לנכים,חניה קיימת,,תקין ופעיל,עיריית באר שבע,,,,3286
34.773402761999996,31.235708233,0,כדורסל,פיברג,נווה זאב,0.0,נווה זאב,כיוונים,0.0,פתוח ללא הגבלה,קיים גידור,קיימת תאורה,נגיש לנכים,חניה קיימת,,תקין ופעיל,עיריית באר שבע,,לא,כדורסל,3287
34.777828051,31.23543091,0,נווה זאב,נווה זאב,פארק כיכר הטנק,0.0,,כיוונים,0.0,פתוח ללא הגבלה,קיים גידור,קיימת תאורה,נגיש לנכים,חניה קיימת,,תקין ופעיל,עיריית באר שבע,,,,3288
34.803368936,31.2781312480001,0,מתקן פתוח לכושר גופני,רמות,פבלו,0.0,רמות,כיוונים,0.0,פתוח ללא הגבלה,אין גידור,אין תאורה,נגיש לנכים,חניה קיימת,,תקין ופעיל,עיריית באר שבע,,,,3289
34.773422569000005,31.259946239,0,מתקן פתוח לכושר גופני,פארק האוסטרלי,שכונה ו' החדשה,0.0,ו' החדשה,כיוונים,0.0,פתוח ללא הגבלה,אין גידור,אין תאורה,נגיש לנכים,חניה קיימת,,תקין ופעיל,עיריית באר שבע,,,,3290
34.791310423,31.254311801,0,מתקן פתוח לכושר גופני,שכונה ב,ביאליק- ליד קולנוע חן,0.0,ב',כיוונים,0.0,פתוח ללא הגבלה,אין גידור,אין תאורה,נגיש לנכים,חניה קיימת,,תקין ופעיל,עיריית באר שבע,,,,3291
34.8030342440001,31.2545510250001,0,קט רגל,גולומב,רחוב גולומב- שכונה ג',0.0,,כיוונים,0.0,פתוח ללא הגבלה,קיים גידור,כן,,חניה קיימת,,תקין ופעיל,עיריית באר שבע,,לא,כדורגל,3292
34.7978481660001,31.278995108000103,0,כדורסל,,טדסקי גד,0.0,רמות,כיוונים,0.0,כן,כן,אין,,כן,,,,,,,3293
34.826208212,31.272674787,0,,"שצ""פ מגרש קטרגל",,0.0,,,0.0,,,,,,,,,,,,3294
34.8028537640001,31.2563287990001,0,קט רגל וינגייט,,וינגייט,0.0,ג,כיוונים,0.0,,,כן,,,,טוב מאוד,,,לא,,3295
34.812641735999996,31.256021112,0,גלגיליות,טאובל,,0.0,ג,,0.0,,כן,,,,,,חברת כיוונים,,לא,,3296
34.808439578000005,31.2576022800001,0,משולב כדורסל וקט רגל,חנה סנש,,0.0,,,0.0,,כן,,,,,,כיוונים,,לא,כדורסל וקט רגל,3297
34.782515931,31.248795882,0,משולב כדורסל וכדורגל,חוגלה,חוגלה,0.0,ה' הישנה,כיוונים,0.0,,,כן,,,,טוב מאוד,,,לא,כדורסל וקטרגל,3298
34.7762973710001,31.255968571,0,קט רגל,יעלים,יעלים,94.0,ה' הישנה,כיוונים,0.0,,כן,כן,,,,טוב מאוד,כיוונים,,לא,קטרגל,3299
34.790852289,31.269356577000103,0,מגרש כדורגל נירים 70X35 (קטן),נירים,,0.0,ד',כיוונים,0.0,בתיאום מראש עם עם מאיר בוסקילה,,כן,כן,,,פעיל ותקין,,,קהילה וכיוונים,כדורגל,3300
34.7778373020001,31.272036304,0,אולם ספורט רב תכליתי,הקונכיה,הצדיק מירושלים,1.0,נחל עשן,כיוונים,3000.0,בתיאום מראש,מבנה סגור,כן,כן,כן,2014.0,תקין ופעיל,כיוונים,,הפועל כדורסל ומכבי כדוריד,אולם רב תכליתי,3301
34.7619063770001,31.2636576030001,0,פארק כושר,טוביהו,,0.0,נחל עשן,כיוונים,0.0,תקין ופעיל,,לא,כן,,,תקין ופעיל,,,לא,פאר כושר,3302
34.762068027000105,31.263306898000103,0,פארק כושר,מקיף טוביהו,,0.0,נחל עשן,כיוונים,0.0,תקין ופעיל,כן,לא,לא,,,תקין ופעיל,,,לא,פארק כושר,3303
34.7647927510001,31.2469901800001,0,משולב 2 מדרשי כדורסל וקטרגל,"שצ""פ נאות לון",שמחה הוצברג,0.0,נאות לון,כיוונים,0.0,תקין ופעיל,,כן,כן,,,תקין ופעיל,,,פתוח,כדורסלוקטרגל,3304
34.779018627,31.257854691,0,מינץ,מינץ,שכונה ה',0.0,,כיוונים,0.0,פתוח ללא הגבלה,,,,חניה קיימת,,תקין ופעיל,עיריית באר שבע,,,,3305
34.7891132780001,31.2463702260001,0,כושר גופני,פארק כושר סוקולוב,,0.0,א',כיוונים,0.0,פעיל,,לא,,,2014.0,3 מתקנים הוסרו עקב ליקויים,,,לא,כושר,3306
34.7679471330001,31.2555182930001,0,מגרש קטרגל,"שצ""פ חתם סופר",חתם סופר,0.0,"י""א",כיוונים,0.0,פעיל,,לא,,,,פעיל,,,לא,קטרגל,3307
34.7778753900001,31.224724295999998,0,כושר גופני,פארק כושר נחל בקע,הצנחנים,0.0,נחל בקע,כיוונים,0.0,פעיל,,לא,,,,פעיל,,,לא,כושר,3308
34.765037647,31.228318752000103,0,מגרש משולב- קט רגל וכדורסל,פלח 7,ינשוף,0.0,פלח 7,כיוונים,0.0,כן,כן,כן,כן,,,,,,,,3309
34.797805414,31.2790856240001,0,קט רגל,גד טדסקי,גד טדסקי,0.0,רמות,כיוונים,0.0,כן,כן,לא,כן,,,תקין,,,,,3310
34.7771340200001,31.2430676160001,0,פארק כושר,ג'ו אלון,ג'ו אלון,0.0,שכונה ט',כן,0.0,כן,לא,לא,כן,כן,,תקין,כיוונים,,,,3311
34.798661638000105,31.266989002000102,0,מתקן אימון כושר גופני,גן סיאטל,רגר- פינת רינגלבלום,0.0,שכ' ו' הישנה,כיוונים,0.0,כן,לא,כן,כן,,,,,,,,3312
34.809596791,31.2564487490001,0,מתקן אימון כושר גופני,וינגייט,וינגיט פינת חנה סנש,0.0,שכונה ג',כיוונים,0.0,כן,לא,לא,,,,תקין,,,,,3313
34.7956865680001,31.245501300999997,0,מתקן אימון כושר גופני,גן הראשונים,רגר פינת ויימצן,0.0,שכונה א',כיוונים,0.0,,,,,,,,,,,,3314
34.785027123000106,31.231064001,0,מתקן כושר אימון גופני,גן אפרסמון נווה נוי,אפרסמון,0.0,נווה נוי,כיוונים,0.0,,,,,,,,,,,,3315
34.763414359,31.242692064,0,מתקן אימון כושר גופני,יצחק ולבר,יצחק ולבר,0.0,נאות לון,כיוונים,0.0,כן,לא,כן,,,,,,,,,3316
34.7648255290001,31.268226199999997,0,מתקן אימון כושר גופני,רבקה,רבקה,0.0,נחל עשן,כיוונים,0.0,,,,,,,,,,,,3317
34.8112135920001,31.259607209000002,0,מתקן אימון כושר גופני,פארק מרמלדה,שד' בן גוריון,0.0,שכונה ג',כיוונים,0.0,כן,כן,כן,,כן,,,,,,,3318
34.7706174910001,31.247720626,0,"שצ""פ כדורסל יחיד",עין גדי,,0.0,ט',כיוונים,0.0,כן,כן,כן,כן,כן,2016.0,תקין,כיוונים,,,,3319
